47P/Ashbrook-Jackson,e,13.0407,356.9210,357.6585,4.123647,0.1177015,0.31850864,189.9500,11/12.0/2021,2000,g 12.5,4.0
# From MPEC 2021-F20
48P/Johnson,e,12.2052,110.1204,216.6766,3.500936,0.1504623,0.42741806,178.5927,11/12.0/2021,2000,g 12.4,4.0
# From MPEC 2021-F20
49P/Arend-Rigaux,e,19.0461,118.7968,332.9355,3.569778,0.1461310,0.59825267,177.8313,11/12.0/2021,2000,g 13.4,4.0
# From MPEC 2015-S97
50P/Arend,e,19.1006,355.1777,49.3116,4.088484,0.1192232,0.52916747,251.1283,11/12.0/2021,2000,g  9.5,6.0
# From NK 3014
51P-A/Harrington,e,5.4260,83.6758,269.2637,3.707866,0.1380442,0.54348803,315.0048,11/12.0/2021,2000,g 10.0,8.0
# From NK 3013
51P-D/Harrington,e,5.4267,83.6607,269.3023,3.706881,0.1380992,0.54341787,315.2842,11/12.0/2021,2000,g 16.0,8.0
# From MPEC 2021-UA9
52P/Harrington-Abell,e,10.2317,336.8380,139.5924,3.864579,0.1297331,0.54012304,4.9051,11/12.0/2021,2000,g 13.5,6.0
# From MPC100283
53P/Van Biesbroeck,e,6.6096,148.8097,134.4969,5.428499,0.0779264,0.55158025,157.5120,11/12.0/2021,2000,g  7.7,4.8
# From MPC 89011
54P/de Vico-Swift-NEAT,e,6.0646,358.8169,1.7988,3.790910,0.1335331,0.42618457,222.9123,11/12.0/2021,2000,g  9.0,4.0
# From MPC 31070
55P/Tempel-Tuttle,e,162.4498,235.4093,172.4930,10.35587,0.0295750,0.90595354,257.2344,11/12.0/2021,2000,g  9.0,4.0
# From MPC101100
56P/Slaughter-Burnham,e,8.1614,345.9964,43.9812,5.068533,0.0863735,0.50782260,167.6369,11/12.0/2021,2000,g  8.5,6.0
# From MPEC 2021-UA9
57P/duToit-Neujmin-Delporte,e,2.8510,188.7725,115.2621,3.447330,0.1539855,0.50103315,3.9396,11/12.0/2021,2000,g 12.5,6.0
# From MPEC 2021-O56
58P/Jackson-Neujmin,e,13.1087,159.0746,200.4943,4.085811,0.1193402,0.66280463,63.6528,11/12.0/2021,2000,g 15.5,6.0
# From MPEC 2021-F20
59P/Kearns-Kwee,e,9.3415,312.8289,127.5160,4.486041,0.1037311,0.47532647,119.5469,11/12.0/2021,2000,g  7.0,6.0
# From MPEC 2021-F20
60P/Tsuchinshan,e,3.5858,267.5167,216.9763,3.524150,0.1489781,0.53427836,159.2872,11/12.0/2021,2000,g 11.5,6.0
# From MPEC 2015-Q71
61P/Shajn-Schaldach,e,5.9990,162.9725,221.7904,3.688478,0.1391340,0.42401893,311.8378,11/12.0/2021,2000,g  6.0,10.0
# From MPC109147
62P/Tsuchinshan,e,4.7446,69.0881,47.2252,3.358971,0.1601012,0.62747989,236.3810,11/12.0/2021,2000,g  8.0,10.0
# From MPC 84320
63P/Wild,e,19.7278,358.0185,169.0727,5.607698,0.0742211,0.64887165,233.5697,11/12.0/2021,2000,g 10.5,6.0
# From MPEC 2021-F20
64P/Swift-Gehrels,e,8.9495,299.9820,97.0762,4.453241,0.1048793,0.68817512,115.7381,11/12.0/2021,2000,g 13.4,4.0
# From MPEC 2021-F20
65P/Gunn,e,9.1779,62.0112,213.8993,3.886717,0.1286263,0.24916947,191.2017,11/12.0/2021,2000,g 11.2,4.0
# From MPEC 2021-F20
66P/duToit,e,18.6449,21.8103,257.4195,6.068002,0.0659380,0.78654020,83.9428,11/12.0/2021,2000,g 15.0,4.0
# From MPEC 2021-UA9
67P/Churyumov-Gerasimenko,e,3.8716,36.3345,22.1329,3.455948,0.1534099,0.64970016,1.5244,11/12.0/2021,2000,g 11.0,4.0
# From MPC 75716
68P/Klemola,e,11.1108,175.0529,153.1712,4.955191,0.0893539,0.63762211,65.5706,11/12.0/2021,2000,g 10.0,4.0
# From MPC114607
69P/Taylor,e,22.0356,104.8207,343.4206,3.886517,0.1286362,0.41324874,124.7645,11/12.0/2021,2000,g  9.5,12.0
# From MPEC 2021-UA9
70P/Kojima,e,6.5981,119.2683,1.8272,3.677845,0.1397378,0.45375539,1.2420,11/12.0/2021,2000,g 11.0,6.0
# From MPC107051
71P/Clark,e,9.4374,59.4061,209.0627,3.138237,0.1772864,0.49383904,282.7717,11/12.0/2021,2000,g  9.8,6.0
# From MPC 89011
72P/Denning-Fujikawa,e,10.9453,26.6950,346.6996,4.310021,0.1101501,0.81853972,296.0112,11/12.0/2021,2000,g 17.5,10.0
# From MPC106348
73P/Schwassmann-Wachmann,e,11.2278,69.6192,199.4782,3.092663,0.1812196,0.68543681,308.0467,11/12.0/2021,2000,g 11.5,6.0
# From MPC106348
73P-T/Schwassmann-Wachmann,e,11.2299,69.6218,199.4596,3.094228,0.1810821,0.68563904,307.8145,11/12.0/2021,2000,g 11.5,6.0
# From MPEC 2021-UA9
74P/Smirnova-Chernykh,e,6.0033,66.8574,117.1234,4.389252,0.1071811,0.13769157,136.0417,11/12.0/2021,2000,g  5.0,6.0
# From MPEC 2021-F20
76P/West-Kohoutek-Ikemura,e,30.4639,84.1115,359.9534,3.471959,0.1523499,0.53823555,113.9489,11/12.0/2021,2000,g 15.5,4.0
# From MPC100283
77P/Longmore,e,24.3182,14.7743,196.8082,3.622564,0.1429486,0.35192104,287.4786,11/12.0/2021,2000,g  7.0,8.0
# From MPEC 2021-O56
78P/Gehrels,e,6.2530,210.5159,192.6324,3.738314,0.1363611,0.46231638,130.0771,11/12.0/2021,2000,g  5.5,8.0
# From MPC 94675
79P/du Toit-Hartley,e,3.1479,280.5337,281.7840,2.943113,0.1952062,0.61882503,225.7685,11/12.0/2021,2000,g 16.0,4.0
# From MPEC 2014-P41
80P/Peters-Hartley,e,29.9255,259.8097,339.2498,4.024379,0.1220832,0.59870697,312.1610,11/12.0/2021,2000,g  9.0,4.0
# From MPEC 2021-UA9
81P/Wild,e,3.2368,136.0963,41.6624,3.452385,0.1536474,0.53706193,298.7423,11/12.0/2021,2000,g  7.0,6.0
# From MPC133426
82P/Gehrels,e,1.1289,239.3104,226.5671,4.134624,0.1172330,0.12174155,144.9995,11/12.0/2021,2000,g 15.0,4.0
# From MPEC 2020-FB5
84P/Giclas,e,7.5513,108.1692,281.5791,3.549359,0.1473938,0.51583494,77.5394,11/12.0/2021,2000,g  9.5,8.0
# From MPC109147
86P/Wild,e,15.4749,72.3563,179.4017,3.601343,0.1442139,0.37227003,347.3683,11/12.0/2021,2000,g 11.0,6.0
# From MPEC 2020-SI8
87P/Bus,e,2.6230,181.5008,25.6923,3.452042,0.1536703,0.39164214,84.4758,11/12.0/2021,2000,g  7.2,10.0
# From MPEC 2021-U31
88P/Howell,e,4.3833,56.6795,235.9093,3.105289,0.1801155,0.56414923,74.1092,11/12.0/2021,2000,g 11.0,6.0
# From MPC100283
89P/Russell,e,12.0696,41.3667,250.3705,3.753862,0.1355147,0.40848222,242.7510,11/12.0/2021,2000,g 11.5,6.0
# From MPC107051
90P/Gehrels,e,9.6491,13.2047,29.0533,6.051901,0.0662013,0.51041471,106.3269,11/12.0/2021,2000,g  8.5,6.0
# From MPEC 2021-S45
91P/Russell,e,14.0782,247.7359,355.0395,3.898692,0.1280341,0.33189240,46.9810,11/12.0/2021,2000,g  7.5,6.0
# From MPEC 2014-J58
92P/Sanguin,e,19.5026,181.3644,163.7690,5.343857,0.0797851,0.66103165,194.9617,11/12.0/2021,2000,g 12.0,6.0
# From NK 2707
93P/Lovas,e,12.2037,339.6500,74.8046,4.381971,0.1074484,0.61287521,184.4562,11/12.0/2021,2000,g  9.0,4.0
# From MPEC 2021-TD0
94P/Russell,e,6.1880,70.8583,92.4476,3.507688,0.1500281,0.36501553,276.6918,11/12.0/2021,2000,g  9.0,6.0
# From MPC 75717
95P/Chiron,e,6.9264,209.2850,339.6519,13.70557,0.0194249,0.37677038,183.3891,11/12.0/2021,2000,g  6.5,2.0
# From MPEC 2017-T14
96P/Machholz,e,57.5347,93.9728,14.7467,3.028858,0.1869760,0.96157604,276.7692,11/12.0/2021,2000,g  9.0,4.0
# From MPEC 2021-UA9
97P/Metcalf-Brewington,e,17.9516,184.0770,229.9514,4.760166,0.0949010,0.46004852,350.9389,11/12.0/2021,2000,g  5.5,6.0
# From MPEC 2013-H38
98P/Takamizawa,e,10.5600,114.7004,157.8660,3.797736,0.1331732,0.56232238,41.4389,11/12.0/2021,2000,g  9.0,8.0
# From MPEC 2021-S45
99P/Kowal,e,4.3393,28.1026,174.9556,6.107416,0.0653007,0.22945405,350.0837,11/12.0/2021,2000,g  4.5,6.0
# From MPEC 2013-O31
100P/Hartley,e,25.5645,37.6918,181.9825,3.432533,0.1549823,0.41225364,317.8477,11/12.0/2021,2000,g  9.0,4.0
# From MPEC 2021-S45
101P/Chernykh,e,5.0524,116.2256,277.7088,5.804582,0.0704770,0.59611530,47.1698,11/12.0/2021,2000,g 10.0,4.8
# From MPEC 2021-S45
102P/Shoemaker,e,25.8846,339.3647,20.5722,3.813678,0.1323391,0.45715645,38.8402,11/12.0/2021,2000,g  6.5,8.0
# From MPEC 2018-HA5
103P/Hartley,e,13.6052,219.7372,181.2828,3.475814,0.1520965,0.69343244,253.5806,11/12.0/2021,2000,g  8.5,8.0
# From MPEC 2021-UA9
104P/Kowal,e,5.7006,207.2186,227.2384,3.206981,0.1716167,0.66536647,349.5963,11/12.0/2021,2000,g 16.0,4.0
# From MPC109147
105P/Singer Brewster,e,9.1694,192.4055,46.4855,3.467934,0.1526152,0.40923242,181.7300,11/12.0/2021,2000,g 11.5,6.0
# From MPEC 2021-UA9
106P/Schuster,e,19.5361,48.8851,353.6706,3.762487,0.1350491,0.59371374,11.5096,11/12.0/2021,2000,g 14.0,4.8
# From MPEC 2015-M77
107P/Wilson-Harrington,e,2.7990,266.7821,95.4302,2.624894,0.2317589,0.63167792,293.7929,11/12.0/2021,2000,g  9.0,4.0
# From MPEC 2021-UA9
108P/Ciffreo,e,11.4366,50.2915,354.4208,3.738727,0.1363385,0.55592517,8.5767,11/12.0/2021,2000,g  8.0,12.0
# From  105, 420
109P/Swift-Tuttle,e,113.9755,139.0483,152.9426,26.15751,0.0073673,0.96274931,77.8620,11/12.0/2021,2000,g  4.0,6.0
# From MPEC 2021-UA9
110P/Hartley,e,11.7067,287.5355,167.4441,3.602359,0.1441530,0.31830076,3.5606,11/12.0/2021,2000,g  1.0,12.0
# From MPC 75718
111P/Helin-Roman-Crockett,e,4.2265,89.7656,0.9763,4.148346,0.1166519,0.10624649,17.4356,11/12.0/2021,2000,g  5.0,8.0
# From MPEC 2021-S45
112P/Urata-Niijima,e,24.2012,31.8326,21.4743,3.525269,0.1489072,0.59004676,95.7366,11/12.0/2021,2000,g 14.0,6.0
# From MPEC 2021-UA9
113P/Spitaler,e,5.2906,306.6873,115.4624,3.693846,0.1388308,0.42014756,332.0533,11/12.0/2021,2000,g 13.5,4.0
# From MPEC 2021-S45
114P/Wiseman-Skiff,e,18.2756,271.0436,172.7582,3.544549,0.1476939,0.55486427,98.6511,11/12.0/2021,2000,g 11.5,6.0
# From MPEC 2021-UA9
115P/Maury,e,11.6774,176.0092,120.9831,4.272000,0.1116239,0.51847897,52.5106,11/12.0/2021,2000,g 10.5,6.0
# From MPEC 2021-UA9
116P/Wild,e,3.6035,20.9822,173.3171,3.490362,0.1511466,0.37059247,322.6665,11/12.0/2021,2000,g  2.5,10.0
# From MPEC 2021-S45
117P/Helin-Roman-Alu,e,8.7035,58.8410,222.9059,4.083432,0.1194445,0.25558396,331.6197,11/12.0/2021,2000,g  2.5,8.0
# From MPEC 2021-TD0
118P/Shoemaker-Levy,e,10.0976,142.1028,314.6737,3.353225,0.1605130,0.45417308,299.4735,11/12.0/2021,2000,g 12.0,4.0
# From MPEC 2021-UA9
119P/Parker-Hartley,e,7.3938,104.6004,321.9410,3.809388,0.1325627,0.38891790,323.8557,11/12.0/2021,2000,g  3.5,8.0
# From MPEC 2021-TD0
120P/Mueller,e,8.4899,358.6724,36.5829,3.962432,0.1249572,0.37463349,23.5889,11/12.0/2021,2000,g 12.0,4.0
# From MPEC 2021-UA9
121P/Shoemaker-Holt,e,20.1636,94.1210,11.4465,4.584264,0.1004152,0.18585141,300.5021,11/12.0/2021,2000,g  6.5,8.0
# From MPC 75718
122P/de Vico,e,85.0927,79.5832,13.0005,17.62480,0.0133204,0.96225821,127.3552,11/12.0/2021,2000,g  7.5,5.2
# From MPEC 2021-F20
123P/West-Hartley,e,15.2851,46.0466,104.0169,3.876673,0.1291265,0.44597604,130.6915,11/12.0/2021,2000,g 12.2,4.0
# From MPEC 2021-F20
124P/Mrkos,e,31.5704,0.2474,184.2001,3.325364,0.1625344,0.50315602,91.6478,11/12.0/2021,2000,g 15.2,4.0
